ONEWEB-0309             
1 49095U 21075W   26163.07723821  .00000046  00000+0  84929-4 0  9995
2 49095  87.9134   6.8798 0001854 102.6850 257.4489 13.17648087232909
ONEWEB-0310             
1 49096U 21075X   26163.05148572  .00000443  00000+0  11971-2 0  9994
2 49096  87.8937 351.7022 0001789  90.4363 269.6970 13.12443836234511
ONEWEB-0311             
1 49097U 21075Y   26163.08400012  .00000096  00000+0  21535-3 0  9990
2 49097  87.9136   6.8780 0002277  83.1186 277.0205 13.17649577232953
ONEWEB-0312             
1 49098U 21075Z   26163.09920384  .00001884  00000+0  48197-2 0  9999
2 49098  87.9131   6.8858 0002091  92.4109 267.7262 13.17643804232931
ONEWEB-0313             
1 49099U 21075AA  26163.25597265  .00000052  00000+0  10047-3 0  9996
2 49099  87.9133   6.8603 0001979  86.8360 273.2998 13.17648480232946
ONEWEB-0314             
1 49100U 21075AB  26163.07050138  .00000044  00000+0  80392-4 0  9994
2 49100  87.9144   6.8694 0002206  92.5079 267.6305 13.17648476232894
ONEWEB-0315             
1 49101U 21075AC  26163.25308655 -.00000224  00000+0 -65744-3 0  9990
2 49101  87.8947 351.6259 0002136  83.5652 276.5720 13.12444423234525
ONEWEB-0316             
1 49102U 21075AD  26163.22684557 -.00000066  00000+0 -20111-3 0  9999
2 49102  87.9158 336.4435 0001916  91.3118 268.8234 13.18686416236552
ONEWEB-0317             
1 49103U 21075AE  26163.02776590 -.00000151  00000+0 -45598-3 0  9998
2 49103  87.8950 351.6944 0001360 110.9746 249.1528 13.12444751234514
ONEWEB-0318             
1 49104U 21075AF  26163.22347399  .00000023  00000+0  26776-4 0  9996
2 49104  87.9166 336.4453 0002048  87.5879 272.5488 13.18685075236510
ONEWEB-0319             
1 49105U 21075AG  26163.08568013  .00000057  00000+0  11240-3 0  9995
2 49105  87.9135   6.8830 0002273  77.9049 282.2337 13.17648565232931
ONEWEB-0323             
1 49106U 21075AH  26163.23783921 -.00000402  00000+0 -11542-2 0  9990
2 49106  87.8948 351.6335 0002353  84.2963 275.8434 13.12442771233909
ONEWEB-0329             
1 49107U 21075AJ  26163.09411779  .00000058  00000+0  11609-3 0  9994
2 49107  87.9135   6.8821 0001992  89.0329 271.1030 13.17648641232915
ONEWEB-0330             
1 49108U 21075AK  26163.26976554  .00000038  00000+0  63969-4 0  9996
2 49108  87.9138   6.8670 0001988  93.0120 267.1240 13.17649225232973
ONEWEB-0292             
1 49186U 21083A   26162.98549493 -.00000679  00000+0 -18933-2 0  9999
2 49186  87.8941 321.2742 0001910  91.4524 268.6824 13.13462281230242
ONEWEB-0303             
1 49187U 21083B   26163.22010184  .00000085  00000+0  18168-3 0  9998
2 49187  87.9161 336.4450 0002011  89.5951 270.5412 13.18686624229323
ONEWEB-0306             
1 49188U 21083C   26163.20998193 -.00000023  00000+0 -90322-4 0  9999
2 49188  87.9168 336.4346 0001717  97.7253 262.4074 13.18686354229361
ONEWEB-0307             
1 49189U 21083D   26163.13191678  .00000216  00000+0  55660-3 0  9992
2 49189  87.8950 321.2421 0001935  94.3081 265.8270 13.13469965230268
ONEWEB-0320             
1 49190U 21083E   26163.23020742  .00000017  00000+0  10453-4 0  9999
2 49190  87.9158 336.4491 0001802  93.2755 266.8583 13.18685141229329
ONEWEB-0321             
1 49191U 21083F   26163.04958744 -.00000013  00000+0 -63040-4 0  9999
2 49191  87.9192 275.4588 0001757 106.2504 253.8823 13.20771824236152
ONEWEB-0322             
1 49192U 21083G   26163.20384361  .00000336  00000+0  88640-3 0  9994
2 49192  87.8948 321.2287 0001402  96.0976 264.0313 13.13473681230269
ONEWEB-0324             
1 49193U 21083H   26163.20322847 -.00000032  00000+0 -11455-3 0  9991
2 49193  87.9169 336.4413 0001940  97.5917 262.5436 13.18684317229344
ONEWEB-0325             
1 49194U 21083J   26163.20660693 -.00000008  00000+0 -51995-4 0  9993
2 49194  87.9157 336.4494 0001825  89.6921 270.4421 13.18684922229355
ONEWEB-0326             
1 49195U 21083K   26162.99429030 -.00000008  00000+0 -53667-4 0  9995
2 49195  87.9167 336.4890 0002033  85.8090 274.3274 13.18684853229312
ONEWEB-0327             
1 49196U 21083L   26162.99400919 -.00000021  00000+0 -85554-4 0  9996
2 49196  87.9159 336.4938 0002015  80.5628 279.5732 13.18684341229336
ONEWEB-0328             
1 49197U 21083M   26163.19370364  .00000325  00000+0  85588-3 0  9991
2 49197  87.8958 321.2029 0001916  99.7742 260.3603 13.13469654230244
ONEWEB-0331             
1 49198U 21083N   26162.98740866  .00001537  00000+0  38648-2 0  9996
2 49198  87.9166 336.4844 0001982  84.9514 275.1844 13.18680205229326
ONEWEB-0333             
1 49199U 21083P   26163.18862217  .00000326  00000+0  85809-3 0  9992
2 49199  87.8946 321.2308 0001821  94.1867 265.9470 13.13470211230250
ONEWEB-0334             
1 49200U 21083Q   26163.29449679  .00002817  00000+0  68920-2 0  9991
2 49200  87.9170 275.4276 0000950 121.4820 238.6407 13.20791539236140
ONEWEB-0335             
1 49201U 21083R   26163.18354750  .00000091  00000+0  21373-3 0  9999
2 49201  87.8948 321.2288 0001996  93.3540 266.7818 13.13470460230267
