OBJECT_NAME,OBJECT_ID,EPOCH,MEAN_MOTION,ECCENTRICITY,INCLINATION,RA_OF_ASC_NODE,ARG_OF_PERICENTER,MEAN_ANOMALY,EPHEMERIS_TYPE,CLASSIFICATION_TYPE,NORAD_CAT_ID,ELEMENT_SET_NO,REV_AT_EPOCH,BSTAR,MEAN_MOTION_DOT,MEAN_MOTION_DDOT
ONEWEB-0309,2021-075W,2026-06-12T01:51:13.381344,13.17648087,.0001854,87.9134,6.8798,102.6850,257.4489,0,U,49095,999,23290,.84928842E-4,.46E-6,0
ONEWEB-0310,2021-075X,2026-06-12T01:14:08.366208,13.12443836,.00017899,87.8937,351.7022,90.4363,269.6970,0,U,49096,999,23451,.11970835E-2,.443E-5,0
ONEWEB-0311,2021-075Y,2026-06-12T02:00:57.610368,13.17649577,.00022779,87.9136,6.8780,83.1186,277.0205,0,U,49097,999,23295,.21534934E-3,.96E-6,0
ONEWEB-0312,2021-075Z,2026-06-12T02:22:51.211776,13.17643804,.00020912,87.9131,6.8858,92.4109,267.7262,0,U,49098,999,23293,.48196792E-2,.1884E-4,0
ONEWEB-0313,2021-075AA,2026-06-12T06:08:36.036960,13.17648480,.00019797,87.9133,6.8603,86.8360,273.2998,0,U,49099,999,23294,.10046524E-3,.52E-6,0
ONEWEB-0314,2021-075AB,2026-06-12T01:41:31.319232,13.17648476,.00022068,87.9144,6.8694,92.5079,267.6305,0,U,49100,999,23289,.80391911E-4,.44E-6,0
ONEWEB-0315,2021-075AC,2026-06-12T06:04:26.677920,13.12444423,.00021361,87.8947,351.6259,83.5652,276.5720,0,U,49101,999,23452,-.65743646E-3,-.224E-5,0
ONEWEB-0316,2021-075AD,2026-06-12T05:26:39.457248,13.18686416,.00019161,87.9158,336.4435,91.3118,268.8234,0,U,49102,999,23655,-.20110693E-3,-.66E-6,0
ONEWEB-0317,2021-075AE,2026-06-12T00:39:58.973760,13.12444751,.00013601,87.8950,351.6944,110.9746,249.1528,0,U,49103,999,23451,-.45597734E-3,-.151E-5,0
ONEWEB-0318,2021-075AF,2026-06-12T05:21:48.152736,13.18685075,.0002048,87.9166,336.4453,87.5879,272.5488,0,U,49104,999,23651,.26776442E-4,.23E-6,0
ONEWEB-0319,2021-075AG,2026-06-12T02:03:22.763232,13.17648565,.0002273,87.9135,6.8830,77.9049,282.2337,0,U,49105,999,23293,.11239947E-3,.57E-6,0
ONEWEB-0323,2021-075AH,2026-06-12T05:42:29.307744,13.12442771,.00023539,87.8948,351.6335,84.2963,275.8434,0,U,49106,999,23390,-.11542164E-2,-.402E-5,0
ONEWEB-0329,2021-075AJ,2026-06-12T02:15:31.777056,13.17648641,.00019925,87.9135,6.8821,89.0329,271.1030,0,U,49107,999,23291,.11608635E-3,.58E-6,0
ONEWEB-0330,2021-075AK,2026-06-12T06:28:27.742656,13.17649225,.00019883,87.9138,6.8670,93.0120,267.1240,0,U,49108,999,23297,.63968829E-4,.38E-6,0
ONEWEB-0292,2021-083A,2026-06-11T23:39:06.761952,13.13462281,.00019106,87.8941,321.2742,91.4524,268.6824,0,U,49186,999,23024,-.18933039E-2,-.679E-5,0
ONEWEB-0303,2021-083B,2026-06-12T05:16:56.798976,13.18686624,.0002011,87.9161,336.4450,89.5951,270.5412,0,U,49187,999,22932,.18168114E-3,.85E-6,0
ONEWEB-0306,2021-083C,2026-06-12T05:02:22.438752,13.18686354,.00017179,87.9168,336.4346,97.7253,262.4074,0,U,49188,999,22936,-.90322261E-4,-.23E-6,0
ONEWEB-0307,2021-083D,2026-06-12T03:09:57.609792,13.13469965,.00019356,87.8950,321.2421,94.3081,265.8270,0,U,49189,999,23026,.55660013E-3,.216E-5,0
ONEWEB-0320,2021-083E,2026-06-12T05:31:29.921088,13.18685141,.0001802,87.9158,336.4491,93.2755,266.8583,0,U,49190,999,22932,.10453006E-4,.17E-6,0
ONEWEB-0321,2021-083F,2026-06-12T01:11:24.354816,13.20771824,.0001757,87.9192,275.4588,106.2504,253.8823,0,U,49191,999,23615,-.63040065E-4,-.13E-6,0
ONEWEB-0322,2021-083G,2026-06-12T04:53:32.087904,13.13473681,.00014023,87.8948,321.2287,96.0976,264.0313,0,U,49192,999,23026,.88639762E-3,.336E-5,0
ONEWEB-0324,2021-083H,2026-06-12T04:52:38.939808,13.18684317,.00019403,87.9169,336.4413,97.5917,262.5436,0,U,49193,999,22934,-.11455018E-3,-.32E-6,0
ONEWEB-0325,2021-083J,2026-06-12T04:57:30.838752,13.18684922,.00018254,87.9157,336.4494,89.6921,270.4421,0,U,49194,999,22935,-.51995334E-4,-.8E-7,0
ONEWEB-0326,2021-083K,2026-06-11T23:51:46.681920,13.18684853,.00020335,87.9167,336.4890,85.8090,274.3274,0,U,49195,999,22931,-.53666582E-4,-.8E-7,0
ONEWEB-0327,2021-083L,2026-06-11T23:51:22.394016,13.18684341,.00020157,87.9159,336.4938,80.5628,279.5732,0,U,49196,999,22933,-.85553868E-4,-.21E-6,0
ONEWEB-0328,2021-083M,2026-06-12T04:38:55.994496,13.13469654,.00019166,87.8958,321.2029,99.7742,260.3603,0,U,49197,999,23024,.85587951E-3,.325E-5,0
ONEWEB-0331,2021-083N,2026-06-11T23:41:52.108224,13.18680205,.00019822,87.9166,336.4844,84.9514,275.1844,0,U,49198,999,22932,.38647825E-2,.1537E-4,0
ONEWEB-0333,2021-083P,2026-06-12T04:31:36.955488,13.13470211,.0001821,87.8946,321.2308,94.1867,265.9470,0,U,49199,999,23025,.85809388E-3,.326E-5,0
ONEWEB-0334,2021-083Q,2026-06-12T07:04:04.522656,13.20791539,.00009505,87.9170,275.4276,121.4820,238.6407,0,U,49200,999,23614,.68919888E-2,.2817E-4,0
ONEWEB-0335,2021-083R,2026-06-12T04:24:18.504000,13.13470460,.0001996,87.8948,321.2288,93.3540,266.7818,0,U,49201,999,23026,.21372651E-3,.91E-6,0
